COMMENT,ORIGINATOR,NORAD_CAT_ID,OBJECT_NAME,OBJECT_TYPE,CLASSIFICATION_TYPE,INTLDES,EPOCH,EPOCH_MICROSECONDS,MEAN_MOTION,ECCENTRICITY,INCLINATION,RA_OF_ASC_NODE,ARG_OF_PERICENTER,MEAN_ANOMALY,EPHEMERIS_TYPE,ELEMENT_SET_NO,REV_AT_EPOCH,BSTAR,MEAN_MOTION_DOT,MEAN_MOTION_DDOT,FILE,TLE_LINE0,TLE_LINE1,TLE_LINE2,OBJECT_ID,OBJECT_NUMBER,SEMIMAJOR_AXIS,PERIOD,APOGEE,PERIGEE,DECAYED
GENERATED VIA SPACETRACK.ORG API,18 SPCS,50803,STARLINK-3321,PAYLOAD,U,22001A,2025-01-13 22:00:00,999936,15.82938882,7.16e-05,53.2071,239.6536,102.875,256.9863,0,999,594,0.0045033,0.01089331,0.0,4610108,0 STARLINK-3321,1 50803U 22001A   25013.91667824  .01089331  00000-0  45033-2 0  9997,2 50803  53.2071 239.6536 0000716 102.8750 256.9863 15.82938882  5948,2022-001A,50803,6700.272,90.97,322.616,321.657,1
GENERATED VIA SPACETRACK.ORG API,18 SPCS,50803,STARLINK-3321,PAYLOAD,U,22001A,2025-01-14 04:00:01,999584,15.83443387,0.0001005,53.2068,238.3979,90.863,254.7534,0,999,16853,0.004562,0.0113496,0.0,4610211,0 STARLINK-3321,1 50803U 22001A   25014.16668981  .01134960  00000-0  45620-2 0  9991,2 50803  53.2068 238.3979 0001005  90.8630 254.7534 15.83443387168534,2022-001A,50803,6698.848,90.941,321.387,320.04,1
GENERATED VIA SPACETRACK.ORG API,18 SPCS,50803,STARLINK-3321,PAYLOAD,U,22001A,2025-01-14 14:00:01,224,15.84282247,8.72e-05,53.2073,236.3006,110.7606,91.9841,0,999,588,0.0045779,0.01191554,0.0,4610679,0 STARLINK-3321,1 50803U 22001A   25014.58334491  .01191554  00000-0  45779-2 0  9990,2 50803  53.2073 236.3006 0000872 110.7606  91.9841 15.84282247  5882,2022-001A,50803,6696.484,90.893,318.932,317.765,1
GENERATED VIA SPACETRACK.ORG API,18 SPCS,50803,STARLINK-3321,PAYLOAD,U,22001A,2025-01-14 20:00:01,999872,15.84810947,6.66e-05,53.207,235.044,96.7784,92.9646,0,999,16864,0.0045684,0.01223185,0.0,4610759,0 STARLINK-3321,1 50803U 22001A   25014.83335648  .01223185  00000-0  45684-2 0  9994,2 50803  53.2070 235.0440 0000666  96.7784  92.9646 15.84810947168640,2022-001A,50803,6694.994,90.863,317.305,316.413,1
GENERATED VIA SPACETRACK.ORG API,18 SPCS,50803,STARLINK-3321,PAYLOAD,U,22001A,2025-01-14 22:00:00,999936,15.84990593,8.86e-05,53.2069,234.6248,90.9913,214.4334,0,999,593,0.0045948,0.01243181,0.0,4610967,0 STARLINK-3321,1 50803U 22001A   25014.91667824  .01243181  00000-0  45948-2 0  9998,2 50803  53.2069 234.6248 0000886  90.9913 214.4334 15.84990593  5936,2022-001A,50803,6694.488,90.852,316.946,315.76,1
GENERATED VIA SPACETRACK.ORG API,18 SPCS,50803,STARLINK-3321,PAYLOAD,U,22001A,2025-01-15 14:00:01,224,15.86497321,7.09e-05,53.2066,231.2614,113.8203,39.6086,0,999,594,0.0043453,0.01266853,0.0,4611564,0 STARLINK-3321,1 50803U 22001A   25015.58334491  .01266853  00000-0  43453-2 0  9993,2 50803  53.2066 231.2614 0000709 113.8203  39.6086 15.86497321  5949,2022-001A,50803,6690.249,90.766,312.588,311.64,1
GENERATED VIA SPACETRACK.ORG API,18 SPCS,50803,STARLINK-3321,PAYLOAD,U,22001A,2025-01-15 20:00:01,224,15.87102356,6.79e-05,53.2065,230.0007,94.5006,47.8502,0,999,16880,0.0039204,0.01165311,0.0,4611623,0 STARLINK-3321,1 50803U 22001A   25015.83334491  .01165311  00000-0  39204-2 0  9997,2 50803  53.2065 230.0007 0000679  94.5006  47.8502 15.87102356168804,2022-001A,50803,6688.549,90.731,310.868,309.959,1
GENERATED VIA SPACETRACK.ORG API,18 SPCS,50803,STARLINK-3321,PAYLOAD,U,22001A,2025-01-15 22:00:00,999936,15.87254521,7.89e-05,53.2067,229.5801,89.4606,169.3312,0,999,577,0.0041185,0.01242704,0.0,4611874,0 STARLINK-3321,1 50803U 22001A   25015.91667824  .01242704  00000-0  41185-2 0  9998,2 50803  53.2067 229.5801 0000789  89.4606 169.3312 15.87254521  5779,2022-001A,50803,6688.121,90.723,310.514,309.458,1
GENERATED VIA SPACETRACK.ORG API,18 SPCS,50803,STARLINK-3321,PAYLOAD,U,22001A,2025-01-16 14:00:01,224,15.88774014,0.0001177,53.2067,226.2055,102.491,9.7399,0,999,588,0.0037928,0.01231712,0.0,4612163,0 STARLINK-3321,1 50803U 22001A   25016.58334491  .01231712  00000-0  37928-2 0  9990,2 50803  53.2067 226.2055 0001177 102.4910   9.7399 15.88774014  5889,2022-001A,50803,6683.856,90.636,306.508,304.934,1
GENERATED VIA SPACETRACK.ORG API,18 SPCS,50803,STARLINK-3321,PAYLOAD,U,22001A,2025-01-16 22:00:00,999936,15.89494866,3.44e-05,53.2064,224.5187,56.1224,164.2026,0,999,16897,0.0038288,0.0129754,0.0,4612252,0 STARLINK-3321,1 50803U 22001A   25016.91667824  .01297540  00000-0  38288-2 0  9997,2 50803  53.2064 224.5187 0000344  56.1224 164.2026 15.89494866168970,2022-001A,50803,6681.835,90.595,303.93,303.47,1
GENERATED VIA SPACETRACK.ORG API,18 SPCS,50803,STARLINK-3321,PAYLOAD,U,22001A,2025-01-17 08:00:01,224,15.90456995,1.35e-05,53.2064,222.4027,299.6982,147.0026,0,999,16904,0.0034962,0.01236202,0.0,4613061,0 STARLINK-3321,1 50803U 22001A   25017.33334491  .01236202  00000-0  34962-2 0  9998,2 50803  53.2064 222.4027 0000135 299.6982 147.0026 15.90456995169044,2022-001A,50803,6679.14,90.54,301.095,300.915,1
GENERATED VIA SPACETRACK.ORG API,18 SPCS,50803,STARLINK-3321,PAYLOAD,U,22001A,2025-01-17 14:00:01,224,15.91042422,3.53e-05,53.2065,221.1324,67.8106,11.3795,0,999,586,0.0033768,0.01081848,0.00051914,4613333,0 STARLINK-3321,1 50803U 22001A   25017.58334491  .01081848  51914-3  33768-2 0  9995,2 50803  53.2065 221.1324 0000353  67.8106  11.3795 15.91042422  5868,2022-001A,50803,6677.502,90.507,299.602,299.131,1
GENERATED VIA SPACETRACK.ORG API,18 SPCS,50803,STARLINK-3321,PAYLOAD,U,22001A,2025-01-17 22:00:00,999936,15.9178099,6.38e-05,53.2065,219.4398,41.4946,148.5074,0,999,591,0.0032821,0.01092111,0.00053567,4613724,0 STARLINK-3321,1 50803U 22001A   25017.91667824  .01092111  53567-3  32821-2 0  9991,2 50803  53.2065 219.4398 0000638  41.4946 148.5074 15.91780990  5913,2022-001A,50803,6675.436,90.465,297.727,296.875,1
GENERATED VIA SPACETRACK.ORG API,18 SPCS,50803,STARLINK-3321,PAYLOAD,U,22001A,2025-01-18 06:00:00,999648,15.92552769,8.44e-05,53.206,217.7418,62.863,238.8415,0,999,16918,0.0030485,0.01056302,0.00050325,4613822,0 STARLINK-3321,1 50803U 22001A   25018.25001157  .01056302  50325-3  30485-2 0  9995,2 50803  53.2060 217.7418 0000844  62.8630 238.8415 15.92552769169182,2022-001A,50803,6673.279,90.421,295.707,294.581,1
GENERATED VIA SPACETRACK.ORG API,18 SPCS,50803,STARLINK-3321,PAYLOAD,U,22001A,2025-01-18 14:00:01,224,15.93302728,6.89e-05,53.2062,216.0429,68.0789,346.24,0,999,593,0.0029996,0.01080649,0.00053497,4614329,0 STARLINK-3321,1 50803U 22001A   25018.58334491  .01080649  53497-3  29996-2 0  9990,2 50803  53.2062 216.0429 0000689  68.0789 346.2400 15.93302728  5937,2022-001A,50803,6671.185,90.378,293.509,292.59,1
GENERATED VIA SPACETRACK.ORG API,18 SPCS,50803,STARLINK-3321,PAYLOAD,U,22001A,2025-01-18 22:00:00,999936,15.9403743,7.23e-05,53.2065,214.3447,348.0777,179.7667,0,999,598,0.0029642,0.01109715,0.00057364,4614653,0 STARLINK-3321,1 50803U 22001A   25018.91667824  .01109715  57364-3  29642-2 0  9997,2 50803  53.2065 214.3447 0000723 348.0777 179.7667 15.94037430  5983,2022-001A,50803,6669.135,90.337,291.482,290.518,1
GENERATED VIA SPACETRACK.ORG API,18 SPCS,50803,STARLINK-3321,PAYLOAD,U,22001A,2025-01-19 04:00:00,999936,15.94632941,0.0001292,53.2063,213.0673,291.729,231.8458,0,999,16933,0.0027276,0.01054835,0.00051719,4614706,0 STARLINK-3321,1 50803U 22001A   25019.16667824  .01054835  51719-3  27276-2 0  9996,2 50803  53.2063 213.0673 0001292 291.7290 231.8458 15.94632941169330,2022-001A,50803,6667.474,90.303,290.201,288.478,1
GENERATED VIA SPACETRACK.ORG API,18 SPCS,50803,STARLINK-3321,PAYLOAD,U,22001A,2025-01-19 14:00:01,224,15.95537921,0.0002436,53.2064,210.9365,281.0587,116.5632,0,999,599,0.0027723,0.01124686,0.00060468,4615456,0 STARLINK-3321,1 50803U 22001A   25019.58334491  .01124686  60468-3  27723-2 0  9993,2 50803  53.2064 210.9365 0002436 281.0587 116.5632 15.95537921  5994,2022-001A,50803,6664.953,90.252,288.442,285.194,1
GENERATED VIA SPACETRACK.ORG API,18 SPCS,50803,STARLINK-3321,PAYLOAD,U,22001A,2025-01-19 22:00:00,999936,15.96289027,0.0003917,53.2061,209.2327,279.5244,234.3416,0,999,598,0.0026847,0.01134808,0.00062419,4615796,0 STARLINK-3321,1 50803U 22001A   25019.91667824  .01134808  62419-3  26847-2 0  9990,2 50803  53.2061 209.2327 0003917 279.5244 234.3416 15.96289027  5987,2022-001A,50803,6662.862,90.209,287.337,282.117,1
GENERATED VIA SPACETRACK.ORG API,18 SPCS,50803,STARLINK-3321,PAYLOAD,U,22001A,2025-01-20 04:00:01,999584,15.9690295,0.0004308,53.2058,207.9506,276.5379,235.161,0,999,16949,0.0023847,0.0104396,0.00052313,4615928,0 STARLINK-3321,1 50803U 22001A   25020.16668981  .01043960  52313-3  23847-2 0  9991,2 50803  53.2058 207.9506 0004308 276.5379 235.1610 15.96902950169497,2022-001A,50803,6661.154,90.175,285.889,280.15,1
GENERATED VIA SPACETRACK.ORG API,18 SPCS,50803,STARLINK-3321,PAYLOAD,U,22001A,2025-01-20 14:00:01,224,15.97848467,0.000401,53.2062,205.8128,276.2536,112.8105,0,999,598,0.0022921,0.01056895,0.00054558,4616438,0 STARLINK-3321,1 50803U 22001A   25020.58334491  .01056895  54558-3  22921-2 0  9999,2 50803  53.2062 205.8128 0004010 276.2536 112.8105 15.97848467  5987,2022-001A,50803,6658.526,90.121,283.061,277.721,1
GENERATED VIA SPACETRACK.ORG API,18 SPCS,50803,STARLINK-3321,PAYLOAD,U,22001A,2025-01-20 22:00:00,999936,15.98563063,0.0006036,53.2057,204.1033,277.8939,230.155,0,999,598,0.0023426,0.01124257,0.00063376,4616743,0 STARLINK-3321,1 50803U 22001A   25020.91667824  .01124257  63376-3  23426-2 0  9992,2 50803  53.2057 204.1033 0006036 277.8939 230.1550 15.98563063  5987,2022-001A,50803,6656.542,90.081,282.425,274.389,1
GENERATED VIA SPACETRACK.ORG API,18 SPCS,50803,STARLINK-3321,PAYLOAD,U,22001A,2025-01-21 12:00:00,999648,15.99946547,0.0007479,53.2053,201.1008,276.3352,352.0709,0,999,16970,0.0019999,0.01040456,0.00054482,4617187,0 STARLINK-3321,1 50803U 22001A   25021.50001157  .01040456  54482-3  19999-2 0  9995,2 50803  53.2053 201.1008 0007479 276.3352 352.0709 15.99946547169701,2022-001A,50803,6652.704,90.003,279.544,269.593,1
